NORAD_CAT_ID,OBJECT_NAME,OBJECT_TYPE,EPOCH,MEAN_MOTION,ECCENTRICITY,INCLINATION,RA_OF_ASC_NODE,ARG_OF_PERICENTER,MEAN_ANOMALY,BSTAR,MEAN_MOTION_DOT,MEAN_MOTION_DDOT,TLE_LINE0,TLE_LINE1,TLE_LINE2,SEMIMAJOR_AXIS,PERIOD,APOGEE,PERIGEE,DECAYED
53836.0,STARLINK-4778,PAYLOAD,2024-07-17 10:55:11,15.08844816,0.0002533,53.2173,108.8844,73.5421,286.585,7.2809e-05,8.71e-06,0.0,0 STARLINK-4778,1 53836U 22114U   24199.45499053  .00000871  00000-0  72809-4 0  9995,2 53836  53.2173 108.8844 0002533  73.5421 286.5850 15.08844816101816,6917.866,95.437,541.483,537.978,0.0
53836.0,STARLINK-4778,PAYLOAD,2024-07-17 22:02:54,15.08816473,0.0001565,53.2159,106.8013,62.5125,297.6026,-0.0004155,-6.89e-05,0.0,0 STARLINK-4778,1 53836U 22114U   24199.91868496 -.00006890  00000-0 -41550-3 0  9994,2 53836  53.2159 106.8013 0001565  62.5125 297.6026 15.08816473102423,6917.952,95.439,540.9,538.735,0.0
53836.0,STARLINK-4778,PAYLOAD,2024-07-18 04:24:26,15.0883031,0.0001154,53.2162,105.6126,77.0379,283.0742,-0.00014282,-2.559e-05,0.0,0 STARLINK-4778,1 53836U 22114U   24200.18364163 -.00002559  00000-0 -14282-3 0  9998,2 53836  53.2162 105.6126 0001154  77.0379 283.0742 15.08830310101929,6917.91,95.438,540.573,538.977,0.0
53836.0,STARLINK-4778,PAYLOAD,2024-07-18 10:45:59,15.08827198,9.91e-05,53.2155,104.4228,74.4251,285.685,-0.00019348,-3.365e-05,0.0,0 STARLINK-4778,1 53836U 22114U   24200.44860012 -.00003365  00000-0 -19348-3 0  9995,2 53836  53.2155 104.4228 0000991  74.4251 285.6850 15.08827198102502,6917.92,95.438,540.47,539.099,0.0
53836.0,STARLINK-4778,PAYLOAD,2024-07-18 21:53:41,15.08829665,0.0001148,53.2162,102.3412,74.2799,285.8319,0.00017165,2.444e-05,0.0,0 STARLINK-4778,1 53836U 22114U   24200.91228602  .00002444  00000-0  17165-3 0  9990,2 53836  53.2162 102.3412 0001148  74.2799 285.8319 15.08829665102572,6917.912,95.438,540.571,538.983,0.0
53836.0,STARLINK-4778,PAYLOAD,2024-07-19 02:39:50,15.08840908,0.0001005,53.2162,101.4507,90.2368,269.8739,0.00097677,0.00015292,0.0,0 STARLINK-4778,1 53836U 22114U   24201.11100646  .00015292  00000-0  97677-3 0  9991,2 53836  53.2162 101.4507 0001005  90.2368 269.8739 15.08840908102064,6917.878,95.437,540.438,539.047,0.0
53836.0,STARLINK-4778,PAYLOAD,2024-07-19 10:36:46,15.08837827,0.0001074,53.216,99.9648,95.6082,264.5033,0.00054721,8.431e-05,0.0,0 STARLINK-4778,1 53836U 22114U   24201.44220861  .00008431  00000-0  54721-3 0  9999,2 53836  53.2160  99.9648 0001074  95.6082 264.5033 15.08837827102118,6917.887,95.438,540.495,539.009,0.0
53836.0,STARLINK-4778,PAYLOAD,2024-07-19 21:44:28,15.08838323,0.0001087,53.2163,97.8824,93.1619,266.9497,0.00039879,6.064e-05,0.0,0 STARLINK-4778,1 53836U 22114U   24201.90588946  .00006064  00000-0  39879-3 0  9998,2 53836  53.2163  97.8824 0001087  93.1619 266.9497 15.08838323102726,6917.886,95.438,540.502,538.999,0.0
53836.0,STARLINK-4778,PAYLOAD,2024-07-20 10:27:33,15.08843589,0.0001351,53.2168,95.5025,87.3398,272.7749,0.00019915,2.883e-05,0.0,0 STARLINK-4778,1 53836U 22114U   24202.43580829  .00002883  00000-0  19915-3 0  9993,2 53836  53.2168  95.5025 0001351  87.3398 272.7749 15.08843589102266,6917.869,95.437,540.669,538.8,0.0
53836.0,STARLINK-4778,PAYLOAD,2024-07-20 23:10:38,15.08842676,0.00014,53.2179,93.1238,90.4376,269.6776,0.00015454,2.173e-05,0.0,0 STARLINK-4778,1 53836U 22114U   24202.96572903  .00002173  00000-0  15454-3 0  9991,2 53836  53.2179  93.1238 0001400  90.4376 269.6776 15.08842676102883,6917.872,95.437,540.706,538.769,0.0
53836.0,STARLINK-4778,PAYLOAD,2024-07-21 21:26:03,15.0884323,0.0001276,53.2166,88.9604,96.475,263.6387,0.0001852,2.661e-05,0.0,0 STARLINK-4778,1 53836U 22114U   24203.89309092  .00002661  00000-0  18520-3 0  9990,2 53836  53.2166  88.9604 0001276  96.4750 263.6387 15.08843230102486,6917.871,95.437,540.618,538.853,0.0
53836.0,STARLINK-4778,PAYLOAD,2024-07-22 02:12:12,15.08846986,0.000122,53.2168,88.068,102.0672,258.0457,0.0002738,4.073e-05,0.0,0 STARLINK-4778,1 53836U 22114U   24204.09180908  .00004073  00000-0  27380-3 0  9999,2 53836  53.2168  88.0680 0001220 102.0672 258.0457 15.08846986103050,6917.859,95.437,540.568,538.88,0.0
53836.0,STARLINK-4778,PAYLOAD,2024-07-23 08:24:31,15.08847751,0.0001297,53.2175,82.4186,93.1831,266.9309,0.00025265,3.736e-05,0.0,0 STARLINK-4778,1 53836U 22114U   24205.35036761  .00003736  00000-0  25265-3 0  9991,2 53836  53.2175  82.4186 0001297  93.1831 266.9309 15.08847751102704,6917.857,95.437,540.619,538.824,0.0
53836.0,STARLINK-4778,PAYLOAD,2024-07-23 22:43:00,15.08834413,0.0001235,53.2177,79.7435,99.617,260.4962,-0.00012113,-2.215e-05,0.0,0 STARLINK-4778,1 53836U 22114U   24205.94653115 -.00002215  00000-0 -12113-3 0  9995,2 53836  53.2177  79.7435 0001235  99.6170 260.4962 15.08834413103336,6917.897,95.438,540.617,538.908,0.0
53836.0,STARLINK-4778,PAYLOAD,2024-07-24 01:53:46,15.08836877,0.000126,53.2178,79.1469,102.7038,257.4095,-5.0611e-05,-1.093e-05,0.0,0 STARLINK-4778,1 53836U 22114U   24206.07901137 -.00001093  00000-0 -50611-4 0  9999,2 53836  53.2178  79.1469 0001260 102.7038 257.4095 15.08836877102816,6917.89,95.438,540.627,538.883,0.0
53836.0,STARLINK-4778,PAYLOAD,2024-07-25 22:24:34,15.08838665,0.0001149,53.219,70.8205,102.9986,257.1134,2.8213e-05,1.61e-06,0.0,0 STARLINK-4778,1 53836U 22114U   24207.93373411  .00000161  00000-0  28213-4 0  9999,2 53836  53.2190  70.8205 0001149 102.9986 257.1134 15.08838665103635,6917.884,95.438,540.544,538.955,0.0
53836.0,STARLINK-4778,PAYLOAD,2024-07-25 23:59:57,15.0883827,0.00012,53.2185,70.5234,93.1805,266.9324,3.1584e-05,2.15e-06,0.0,0 STARLINK-4778,1 53836U 22114U   24207.99997640  .00000215  00000-0  31584-4 0  9996,2 53836  53.2185  70.5234 0001200  93.1805 266.9324 15.08838270103100,6917.886,95.438,540.581,538.921,0.0
53836.0,STARLINK-4778,PAYLOAD,2024-07-26 14:18:26,15.08842721,0.0001387,53.2178,67.8481,74.1802,285.9343,9.2378e-05,1.183e-05,0.0,0 STARLINK-4778,1 53836U 22114U   24208.59613471  .00001183  00000-0  92378-4 0  9993,2 53836  53.2178  67.8481 0001387  74.1802 285.9343 15.08842721103734,6917.872,95.437,540.697,538.778,0.0
53836.0,STARLINK-4778,PAYLOAD,2024-07-26 22:15:20,15.08848084,0.0001253,53.2158,66.3649,81.629,278.4844,0.00020912,3.043e-05,0.0,0 STARLINK-4778,1 53836U 22114U   24208.92732519  .00003043  00000-0  20912-3 0  9996,2 53836  53.2158  66.3649 0001253  81.6290 278.4844 15.08848084103245,6917.856,95.437,540.587,538.854,0.0
53836.0,STARLINK-4778,PAYLOAD,2024-07-27 20:30:46,15.08836345,0.0001095,53.2174,62.1992,93.28,266.8317,2.2895e-06,-2.51e-06,0.0,0 STARLINK-4778,1 53836U 22114U   24209.85470069 -.00000251  00000-0  22895-5 0  9991,2 53836  53.2174  62.1992 0001095  93.2800 266.8317 15.08836345103926,6917.892,95.438,540.514,538.999,0.0
53836.0,STARLINK-4778,PAYLOAD,2024-07-27 22:06:09,15.08836771,0.0001158,53.2171,61.9011,97.6265,262.4858,1.0366e-05,-1.23e-06,0.0,0 STARLINK-4778,1 53836U 22114U   24209.92094015 -.00000123  00000-0  10366-4 0  9999,2 53836  53.2171  61.9011 0001158  97.6265 262.4858 15.08836771103391,6917.89,95.438,540.556,538.954,0.0
53836.0,STARLINK-4778,PAYLOAD,2024-07-28 20:21:31,15.08881701,0.0001606,53.2182,57.7391,83.6463,276.4712,-0.00042573,-7.065e-05,0.0,0 STARLINK-4778,1 53836U 22114U   24210.84828232 -.00007065  00000-0 -42573-3 0  9995,2 53836  53.2182  57.7391 0001606  83.6463 276.4712 15.08881701103533,6917.753,95.435,540.729,538.507,0.0
53836.0,STARLINK-4778,PAYLOAD,2024-07-29 20:12:19,15.08843021,0.0001389,53.2188,53.2784,82.4601,277.6549,0.00015412,2.166e-05,0.0,0 STARLINK-4778,1 53836U 22114U   24211.84189600  .00002166  00000-0  15412-3 0  9992,2 53836  53.2188  53.2784 0001389  82.4601 277.6549 15.08843021103685,6917.871,95.437,540.697,538.775,0.0
53836.0,STARLINK-4778,PAYLOAD,2024-07-29 21:47:42,15.08844646,0.0001399,53.2188,52.9807,82.1572,277.9579,0.00016353,2.316e-05,0.0,0 STARLINK-4778,1 53836U 22114U   24211.90813498  .00002316  00000-0  16353-3 0  9990,2 53836  53.2188  52.9807 0001399  82.1572 277.9579 15.08844646104234,6917.866,95.437,540.699,538.763,0.0
53836.0,STARLINK-4778,PAYLOAD,2024-07-30 21:38:30,15.08845052,0.0001429,53.2187,48.5193,82.4227,277.6927,5.0334e-05,5.13e-06,0.0,0 STARLINK-4778,1 53836U 22114U   24212.90173633  .00000513  00000-0  50334-4 0  9996,2 53836  53.2187  48.5193 0001429  82.4227 277.6927 15.08845052104388,6917.865,95.437,540.719,538.741,0.0
53836.0,STARLINK-4778,PAYLOAD,2024-07-31 13:32:22,15.08834481,0.0001477,53.2194,45.5459,82.6843,277.4317,-6.3354e-06,-3.89e-06,0.0,0 STARLINK-4778,1 53836U 22114U   24213.56414426 -.00000389  00000-0 -63354-5 0  9997,2 53836  53.2194  45.5459 0001477  82.6843 277.4317 15.08834481104483,6917.897,95.438,540.784,538.74,0.0
53836.0,STARLINK-4778,PAYLOAD,2024-07-31 19:53:54,15.08841245,0.0001409,53.2188,44.3578,85.0133,275.102,-1.0117e-05,-4.49e-06,0.0,0 STARLINK-4778,1 53836U 22114U   24213.82910067 -.00000449  00000-0 -10117-4 0  9993,2 53836  53.2188  44.3578 0001409  85.0133 275.1020 15.08841245104526,6917.877,95.437,540.716,538.767,0.0
53836.0,STARLINK-4778,PAYLOAD,2024-08-01 13:23:08,15.08856763,0.0001406,53.2195,41.0882,97.3586,262.7566,-0.00011291,-2.085e-05,0.0,0 STARLINK-4778,1 53836U 22114U   24214.55773809 -.00002085  00000-0 -11291-3 0  9996,2 53836  53.2195  41.0882 0001406  97.3586 262.7566 15.08856763104631,6917.829,95.436,540.667,538.722,0.0
53836.0,STARLINK-4778,PAYLOAD,2024-08-01 18:09:17,15.08878976,8.01e-05,53.22,40.1964,103.6527,256.4554,-0.00033404,-5.606e-05,0.0,0 STARLINK-4778,1 53836U 22114U   24214.75644863 -.00005606  00000-0 -33404-3 0  9997,2 53836  53.2200  40.1964 0000801 103.6527 256.4554 15.08878976104124,6917.761,95.435,540.18,539.072,0.0
53836.0,STARLINK-4778,PAYLOAD,2024-08-02 05:17:00,15.08839969,0.0001158,53.2171,38.1135,90.7889,269.3236,0.00013784,1.907e-05,0.0,0 STARLINK-4778,1 53836U 22114U   24215.22013891  .00001907  00000-0  13784-3 0  9998,2 53836  53.2171  38.1135 0001158  90.7889 269.3236 15.08839969104197,6917.88,95.438,540.547,538.944,0.0
